[{"OBJECT_NAME":"AL-FARABI 2","OBJECT_ID":"2018-099AZ","EPOCH":"2026-03-09T22:26:01.961088","MEAN_MOTION":15.6820138,"ECCENTRICITY":0.00045442,"INCLINATION":97.4095,"RA_OF_ASC_NODE":144.7856,"ARG_OF_PERICENTER":216.2732,"MEAN_ANOMALY":143.8222,"EPHEMERIS_TYPE":0,"CLASSIFICATION_TYPE":"U","NORAD_CAT_ID":43805,"ELEMENT_SET_NO":999,"REV_AT_EPOCH":39939,"BSTAR":0.0015578554,"MEAN_MOTION_DOT":0.00177018,"MEAN_MOTION_DDOT":0},{"OBJECT_NAME":"STARLINK-11307 [DTC]","OBJECT_ID":"2024-171L","EPOCH":"2026-03-09T13:28:00.698880","MEAN_MOTION":15.69712277,"ECCENTRICITY":0.0001226,"INCLINATION":53.1605,"RA_OF_ASC_NODE":177.2511,"ARG_OF_PERICENTER":128.1588,"MEAN_ANOMALY":231.954,"EPHEMERIS_TYPE":0,"CLASSIFICATION_TYPE":"U","NORAD_CAT_ID":61210,"ELEMENT_SET_NO":999,"REV_AT_EPOCH":8437,"BSTAR":-2.4039e-5,"MEAN_MOTION_DOT":-3.5e-5,"MEAN_MOTION_DDOT":0}]
